{"type": "FeatureCollection", "features": [ {"type": "Feature", "properties": {"norad_id": 29808, "name": "FENGYUN 1C DEB", "group": "fengyun-1c-debris", "lat": 24.828179405084533, "lon": -83.21468769878457, "alt_km": 464.15932209317725, "timestamp": "2025-12-25T22:42:17.282704+00:00", "meta": {"OBJECT_NAME": "FENGYUN 1C DEB", "OBJECT_ID": "1999-025DA", "EPOCH": "2025-12-25T18:07:04.903104", "MEAN_MOTION": 15.30813576, "ECCENTRICITY": 0.0019904, "INCLINATION": 99.0116, "RA_OF_ASC_NODE": 280.7643, "ARG_OF_PERICENTER": 79.9805, "MEAN_ANOMALY": 332.8348, "EPHEMERIS_TYPE": 0, "CLASSIFICATION_TYPE": "U", "NORAD_CAT_ID": 29808, "ELEMENT_SET_NO": 999, "REV_AT_EPOCH": 98424, "BSTAR": 0.015828, "MEAN_MOTION_DOT": 0.00505938, "MEAN_MOTION_DDOT": 0}, "tle": {"line1": "1 29808U 99025DA  25359.75491786  .00505938  00000+0  15828-1 0  9997", "line2": "2 29808  99.0116 280.7643 0019904  79.9805 332.8348 15.30813576984243"}}, "geometry": {"type": "Point", "coordinates": [-83.21468769878457, 24.828179405084533]}}, {"type": "Feature", "properties": {"norad_id": 29809, "name": "FENGYUN 1C DEB", "group": "fengyun-1c-debris", "lat": 52.579021218294265, "lon": 155.85579502462946, "alt_km": 813.6695494630158, "timestamp": "2025-12-25T22:42:17.282713+00:00", "meta": {"OBJECT_NAME": "FENGYUN 1C DEB", "OBJECT_ID": "1999-025DB", "EPOCH": "2025-12-25T11:05:31.130304", "MEAN_MOTION": 14.46625727, "ECCENTRICITY": 0.01154, "INCLINATION": 98.862, "RA_OF_ASC_NODE": 323.5842, "ARG_OF_PERICENTER": 311.7657, "MEAN_ANOMALY": 176.1226, "EPHEMERIS_TYPE": 0, "CLASSIFICATION_TYPE": "U", "NORAD_CAT_ID": 29809, "ELEMENT_SET_NO": 999, "REV_AT_EPOCH": 99651, "BSTAR": 0.00034982, "MEAN_MOTION_DOT": 1.317e-05, "MEAN_MOTION_DDOT": 0}, "tle": {"line1": "1 29809U 99025DB  25359.46216586  .00001317  00000+0  34982-3 0  9995", "line2": "2 29809  98.8620 323.5842 0115400 311.7657 176.1226 14.46625727996510"}}, "geometry": {"type": "Point", "coordinates": [155.85579502462946, 52.579021218294265]}}, {"type": "Feature", "properties": {"norad_id": 29810, "name": "FENGYUN 1C DEB", "group": "fengyun-1c-debris", "lat": 40.605096423313256, "lon": 29.511578778180745, "alt_km": 767.6101017310048, "timestamp": "2025-12-25T22:42:17.282723+00:00", "meta": {"OBJECT_NAME": "FENGYUN 1C DEB", "OBJECT_ID": "1999-025DC", "EPOCH": "2025-12-25T14:42:47.520864", "MEAN_MOTION": 14.29147273, "ECCENTRICITY": 0.0066331, "INCLINATION": 99.2052, "RA_OF_ASC_NODE": 37.151, "ARG_OF_PERICENTER": 341.8517, "MEAN_ANOMALY": 146.6043, "EPHEMERIS_TYPE": 0, "CLASSIFICATION_TYPE": "U", "NORAD_CAT_ID": 29810, "ELEMENT_SET_NO": 999, "REV_AT_EPOCH": 98561, "BSTAR": 0.00025969, "MEAN_MOTION_DOT": 6.25e-06, "MEAN_MOTION_DDOT": 0}, "tle": {"line1": "1 29810U 99025DC  25359.61305001  .00000625  00000+0  25969-3 0  9991", "line2": "2 29810  99.2052  37.1510 0066331 341.8517 146.6043 14.29147273985617"}}, "geometry": {"type": "Point", "coordinates": [29.511578778180745, 40.605096423313256]}}, {"type": "Feature", "properties": {"norad_id": 29812, "name": "FENGYUN 1C DEB", "group": "fengyun-1c-debris", "lat": 69.2274723851029, "lon": 164.9087541466499, "alt_km": 959.7707279106571, "timestamp": "2025-12-25T22:42:17.282734+00:00", "meta": {"OBJECT_NAME": "FENGYUN 1C DEB", "OBJECT_ID": "1999-025DE", "EPOCH": "2025-12-25T12:21:49.956192", "MEAN_MOTION": 14.02030544, "ECCENTRICITY": 0.0143663, "INCLINATION": 98.3499, "RA_OF_ASC_NODE": 187.2934, "ARG_OF_PERICENTER": 291.8261, "MEAN_ANOMALY": 124.5352, "EPHEMERIS_TYPE": 0, "CLASSIFICATION_TYPE": "U", "NORAD_CAT_ID": 29812, "ELEMENT_SET_NO": 999, "REV_AT_EPOCH": 96351, "BSTAR": 0.0010333, "MEAN_MOTION_DOT": 1.686e-05, "MEAN_MOTION_DDOT": 0}, "tle": {"line1": "1 29812U 99025DE  25359.51516153  .00001686  00000+0  10333-2 0  9990", "line2": "2 29812  98.3499 187.2934 0143663 291.8261 124.5352 14.02030544963511"}}, "geometry": {"type": "Point", "coordinates": [164.9087541466499, 69.2274723851029]}}, {"type": "Feature", "properties": {"norad_id": 29813, "name": "FENGYUN 1C DEB", "group": "fengyun-1c-debris", "lat": 52.38741532311865, "lon": 7.897699760784748, "alt_km": 862.1190376206541, "timestamp": "2025-12-25T22:42:17.282743+00:00", "meta": {"OBJECT_NAME": "FENGYUN 1C DEB", "OBJECT_ID": "1999-025DF", "EPOCH": "2025-12-25T14:32:10.776192", "MEAN_MOTION": 14.09454431, "ECCENTRICITY": 0.0012395, "INCLINATION": 98.7268, "RA_OF_ASC_NODE": 19.0674, "ARG_OF_PERICENTER": 184.7113, "MEAN_ANOMALY": 302.7287, "EPHEMERIS_TYPE": 0, "CLASSIFICATION_TYPE": "U", "NORAD_CAT_ID": 29813, "ELEMENT_SET_NO": 999, "REV_AT_EPOCH": 97441, "BSTAR": 5.6502e-05, "MEAN_MOTION_DOT": 5.6e-07, "MEAN_MOTION_DDOT": 0}, "tle": {"line1": "1 29813U 99025DF  25359.60568028  .00000056  00000+0  56502-4 0  9999", "line2": "2 29813  98.7268  19.0674 0012395 184.7113 302.7287 14.09454431974416"}}, "geometry": {"type": "Point", "coordinates": [7.897699760784748, 52.38741532311865]}}, {"type": "Feature", "properties": {"norad_id": 29815, "name": "FENGYUN 1C DEB", "group": "fengyun-1c-debris", "lat": 81.62396669019753, "lon": -65.94774585476888, "alt_km": 544.1648336083299, "timestamp": "2025-12-25T22:42:17.282753+00:00", "meta": {"OBJECT_NAME": "FENGYUN 1C DEB", "OBJECT_ID": "1999-025DH", "EPOCH": "2025-12-25T12:28:15.091968", "MEAN_MOTION": 14.63794363, "ECCENTRICITY": 0.0184169, "INCLINATION": 98.0553, "RA_OF_ASC_NODE": 7.7531, "ARG_OF_PERICENTER": 95.1771, "MEAN_ANOMALY": 267.0478, "EPHEMERIS_TYPE": 0, "CLASSIFICATION_TYPE": "U", "NORAD_CAT_ID": 29815, "ELEMENT_SET_NO": 999, "REV_AT_EPOCH": 38, "BSTAR": 0.00054997, "MEAN_MOTION_DOT": 3.62e-05, "MEAN_MOTION_DDOT": 0}, "tle": {"line1": "1 29815U 99025DH  25359.51961912  .00003620  00000+0  54997-3 0  9995", "line2": "2 29815  98.0553   7.7531 0184169  95.1771 267.0478 14.63794363   380"}}, "geometry": {"type": "Point", "coordinates": [-65.94774585476888, 81.62396669019753]}}, {"type": "Feature", "properties": {"norad_id": 29816, "name": "FENGYUN 1C DEB", "group": "fengyun-1c-debris", "lat": 50.75586056132149, "lon": -150.4622655626918, "alt_km": 723.6949323293247, "timestamp": "2025-12-25T22:42:17.282763+00:00", "meta": {"OBJECT_NAME": "FENGYUN 1C DEB", "OBJECT_ID": "1999-025DJ", "EPOCH": "2025-12-25T12:46:57.859104", "MEAN_MOTION": 14.44403715, "ECCENTRICITY": 0.0238002, "INCLINATION": 98.9922, "RA_OF_ASC_NODE": 220.2778, "ARG_OF_PERICENTER": 139.024, "MEAN_ANOMALY": 286.9074, "EPHEMERIS_TYPE": 0, "CLASSIFICATION_TYPE": "U", "NORAD_CAT_ID": 29816, "ELEMENT_SET_NO": 999, "REV_AT_EPOCH": 98372, "BSTAR": 0.00079271, "MEAN_MOTION_DOT": 3.81e-05, "MEAN_MOTION_DDOT": 0}, "tle": {"line1": "1 29816U 99025DJ  25359.53261411  .00003810  00000+0  79271-3 0  9998", "line2": "2 29816  98.9922 220.2778 0238002 139.0240 286.9074 14.44403715983727"}}, "geometry": {"type": "Point", "coordinates": [-150.4622655626918, 50.75586056132149]}}, {"type": "Feature", "properties": {"norad_id": 29817, "name": "FENGYUN 1C DEB", "group": "fengyun-1c-debris", "lat": 4.609990168487148, "lon": -12.105039587826765, "alt_km": 839.6038998217191, "timestamp": "2025-12-25T22:42:17.282773+00:00", "meta": {"OBJECT_NAME": "FENGYUN 1C DEB", "OBJECT_ID": "1999-025DK", "EPOCH": "2025-12-25T13:02:22.923168", "MEAN_MOTION": 14.14268241, "ECCENTRICITY": 0.0011607, "INCLINATION": 98.5585, "RA_OF_ASC_NODE": 348.2049, "ARG_OF_PERICENTER": 339.143, "MEAN_ANOMALY": 136.3725, "EPHEMERIS_TYPE": 0, "CLASSIFICATION_TYPE": "U", "NORAD_CAT_ID": 29817, "ELEMENT_SET_NO": 999, "REV_AT_EPOCH": 97576, "BSTAR": 0.00033052, "MEAN_MOTION_DOT": 5.9e-06, "MEAN_MOTION_DDOT": 0}, "tle": {"line1": "1 29817U 99025DK  25359.54332087  .00000590  00000+0  33052-3 0  9997", "line2": "2 29817  98.5585 348.2049 0011607 339.1430 136.3725 14.14268241975761"}}, "geometry": {"type": "Point", "coordinates": [-12.105039587826765, 4.609990168487148]}}, {"type": "Feature", "properties": {"norad_id": 29818, "name": "FENGYUN 1C DEB", "group": "fengyun-1c-debris", "lat": -3.1044816134506408, "lon": -122.7775117028815, "alt_km": 799.1557155359251, "timestamp": "2025-12-25T22:42:17.282784+00:00", "meta": {"OBJECT_NAME": "FENGYUN 1C DEB", "OBJECT_ID": "1999-025DL", "EPOCH": "2025-12-25T14:26:58.130016", "MEAN_MOTION": 14.04511909, "ECCENTRICITY": 0.0114589, "INCLINATION": 98.7205, "RA_OF_ASC_NODE": 236.4151, "ARG_OF_PERICENTER": 349.7962, "MEAN_ANOMALY": 68.7576, "EPHEMERIS_TYPE": 0, "CLASSIFICATION_TYPE": "U", "NORAD_CAT_ID": 29818, "ELEMENT_SET_NO": 999, "REV_AT_EPOCH": 96990, "BSTAR": 0.00036195, "MEAN_MOTION_DOT": 5.7e-06, "MEAN_MOTION_DDOT": 0}, "tle": {"line1": "1 29818U 99025DL  25359.60206169  .00000570  00000+0  36195-3 0  9995", "line2": "2 29818  98.7205 236.4151 0114589 349.7962  68.7576 14.04511909969907"}}, "geometry": {"type": "Point", "coordinates": [-122.7775117028815, -3.1044816134506408]}}, {"type": "Feature", "properties": {"norad_id": 29819, "name": "FENGYUN 1C DEB", "group": "fengyun-1c-debris", "lat": -1.3343382873983196, "lon": -16.651018377891035, "alt_km": 769.8411223943922, "timestamp": "2025-12-25T22:42:17.282793+00:00", "meta": {"OBJECT_NAME": "FENGYUN 1C DEB", "OBJECT_ID": "1999-025DM", "EPOCH": "2025-12-25T13:01:44.545152", "MEAN_MOTION": 14.0221523, "ECCENTRICITY": 0.0191527, "INCLINATION": 98.7346, "RA_OF_ASC_NODE": 342.7572, "ARG_OF_PERICENTER": 31.4057, "MEAN_ANOMALY": 94.498, "EPHEMERIS_TYPE": 0, "CLASSIFICATION_TYPE": "U", "NORAD_CAT_ID": 29819, "ELEMENT_SET_NO": 999, "REV_AT_EPOCH": 96799, "BSTAR": 0.0003396, "MEAN_MOTION_DOT": 5.69e-06, "MEAN_MOTION_DDOT": 0}, "tle": {"line1": "1 29819U 99025DM  25359.54287668  .00000569  00000+0  33960-3 0  9997", "line2": "2 29819  98.7346 342.7572 0191527  31.4057  94.4980 14.02215230967997"}}, "geometry": {"type": "Point", "coordinates": [-16.651018377891035, -1.3343382873983196]}}]}